{"fetched_at":"2026-07-21T17:53:31.607Z","source":"https://celestrak.org/NORAD/elements/gp.php?NAME=HULIANWANG&FORMAT=JSON","constellation":"guowang","records":[{"OBJECT_NAME":"HULIANWANG DIGUI-156","OBJECT_ID":"2026-047B","EPOCH":"2026-07-20T23:25:58.796544","CLASSIFICATION_TYPE":"U","MEAN_MOTION":13.29326525,"ECCENTRICITY":0.00009066,"INCLINATION":50.0042,"RA_OF_ASC_NODE":295.1276,"ARG_OF_PERICENTER":222.8538,"MEAN_ANOMALY":137.2264,"EPHEMERIS_TYPE":0,"NORAD_CAT_ID":68130,"ELEMENT_SET_NO":999,"REV_AT_EPOCH":1755,"BSTAR":0.000060574959,"MEAN_MOTION_DOT":-9.6e-7,"MEAN_MOTION_DDOT":0},{"OBJECT_NAME":"HULIANWANG DIGUI-157","OBJECT_ID":"2026-047C","EPOCH":"2026-07-20T06:59:39.122592","CLASSIFICATION_TYPE":"U","MEAN_MOTION":13.29325835,"ECCENTRICITY":0.00009271,"INCLINATION":50.0014,"RA_OF_ASC_NODE":297.4806,"ARG_OF_PERICENTER":217.4065,"MEAN_ANOMALY":142.6743,"EPHEMERIS_TYPE":0,"NORAD_CAT_ID":68131,"ELEMENT_SET_NO":999,"REV_AT_EPOCH":1747,"BSTAR":0.000065468687,"MEAN_MOTION_DOT":-9.4e-7,"MEAN_MOTION_DDOT":0},{"OBJECT_NAME":"HULIANWANG DIGUI-158","OBJECT_ID":"2026-047D","EPOCH":"2026-07-20T23:01:54.814944","CLASSIFICATION_TYPE":"U","MEAN_MOTION":13.29324573,"ECCENTRICITY":0.00010135,"INCLINATION":50.0059,"RA_OF_ASC_NODE":295.0604,"ARG_OF_PERICENTER":218.3585,"MEAN_ANOMALY":141.7215,"EPHEMERIS_TYPE":0,"NORAD_CAT_ID":68132,"ELEMENT_SET_NO":999,"REV_AT_EPOCH":1755,"BSTAR":0.000053991553,"MEAN_MOTION_DOT":-9.9e-7,"MEAN_MOTION_DDOT":0},{"OBJECT_NAME":"HULIANWANG DIGUI-159","OBJECT_ID":"2026-047E","EPOCH":"2026-07-20T15:36:51.976512","CLASSIFICATION_TYPE":"U","MEAN_MOTION":13.29325922,"ECCENTRICITY":0.0001076,"INCLINATION":50.0017,"RA_OF_ASC_NODE":296.0622,"ARG_OF_PERICENTER":211.6225,"MEAN_ANOMALY":148.4583,"EPHEMERIS_TYPE":0,"NORAD_CAT_ID":68133,"ELEMENT_SET_NO":999,"REV_AT_EPOCH":1752,"BSTAR":-0.000025517913,"MEAN_MOTION_DOT":-0.00000136,"MEAN_MOTION_DDOT":0},{"OBJECT_NAME":"HULIANWANG DIGUI-160","OBJECT_ID":"2026-047F","EPOCH":"2026-07-20T13:24:26.063136","CLASSIFICATION_TYPE":"U","MEAN_MOTION":13.29326033,"ECCENTRICITY":0.00011302,"INCLINATION":50.0086,"RA_OF_ASC_NODE":296.3074,"ARG_OF_PERICENTER":202.8553,"MEAN_ANOMALY":157.2269,"EPHEMERIS_TYPE":0,"NORAD_CAT_ID":68134,"ELEMENT_SET_NO":999,"REV_AT_EPOCH":1750,"BSTAR":0.000066803201,"MEAN_MOTION_DOT":-9.3e-7,"MEAN_MOTION_DDOT":0},{"OBJECT_NAME":"HULIANWANG DIGUI-161","OBJECT_ID":"2026-047G","EPOCH":"2026-07-20T06:23:26.017440","CLASSIFICATION_TYPE":"U","MEAN_MOTION":13.293251,"ECCENTRICITY":0.00009712,"INCLINATION":50.0104,"RA_OF_ASC_NODE":297.4502,"ARG_OF_PERICENTER":211.1675,"MEAN_ANOMALY":148.914,"EPHEMERIS_TYPE":0,"NORAD_CAT_ID":68135,"ELEMENT_SET_NO":999,"REV_AT_EPOCH":1747,"BSTAR":0.000055207497,"MEAN_MOTION_DOT":-9.8e-7,"MEAN_MOTION_DDOT":0},{"OBJECT_NAME":"HULIANWANG DIGUI-162","OBJECT_ID":"2026-047H","EPOCH":"2026-07-21T05:27:04.514112","CLASSIFICATION_TYPE":"U","MEAN_MOTION":13.2932453,"ECCENTRICITY":0.00009511,"INCLINATION":50.0074,"RA_OF_ASC_NODE":293.8286,"ARG_OF_PERICENTER":225.8332,"MEAN_ANOMALY":134.2463,"EPHEMERIS_TYPE":0,"NORAD_CAT_ID":68136,"ELEMENT_SET_NO":999,"REV_AT_EPOCH":1759,"BSTAR":0.000080301492,"MEAN_MOTION_DOT":-8.7e-7,"MEAN_MOTION_DDOT":0},{"OBJECT_NAME":"HULIANWANG DIGUI-163","OBJECT_ID":"2026-047J","EPOCH":"2026-07-21T05:14:44.722752","CLASSIFICATION_TYPE":"U","MEAN_MOTION":13.29325848,"ECCENTRICITY":0.00009262,"INCLINATION":50.0074,"RA_OF_ASC_NODE":293.7872,"ARG_OF_PERICENTER":224.6174,"MEAN_ANOMALY":135.4624,"EPHEMERIS_TYPE":0,"NORAD_CAT_ID":68137,"ELEMENT_SET_NO":999,"REV_AT_EPOCH":1760,"BSTAR":0.00004031263,"MEAN_MOTION_DOT":-0.00000105,"MEAN_MOTION_DDOT":0},{"OBJECT_NAME":"HULIANWANG DIGUI-164","OBJECT_ID":"2026-076A","EPOCH":"2026-07-21T06:35:14.989056","CLASSIFICATION_TYPE":"U","MEAN_MOTION":13.24410542,"ECCENTRICITY":0.00019195,"INCLINATION":86.4948,"RA_OF_ASC_NODE":32.3638,"ARG_OF_PERICENTER":78.8791,"MEAN_ANOMALY":281.2559,"EPHEMERIS_TYPE":0,"NORAD_CAT_ID":68656,"ELEMENT_SET_NO":999,"REV_AT_EPOCH":1388,"BSTAR":-0.000021986682,"MEAN_MOTION_DOT":5e-8,"MEAN_MOTION_DDOT":0},{"OBJECT_NAME":"HULIANWANG DIGUI-165","OBJECT_ID":"2026-076B","EPOCH":"2026-07-21T04:35:34.950336","CLASSIFICATION_TYPE":"U","MEAN_MOTION":13.24413153,"ECCENTRICITY":0.00021141,"INCLINATION":86.4964,"RA_OF_ASC_NODE":32.4099,"ARG_OF_PERICENTER":82.5522,"MEAN_ANOMALY":277.5853,"EPHEMERIS_TYPE":0,"NORAD_CAT_ID":68657,"ELEMENT_SET_NO":999,"REV_AT_EPOCH":1387,"BSTAR":-0.000069113221,"MEAN_MOTION_DOT":-1.5e-7,"MEAN_MOTION_DDOT":0},{"OBJECT_NAME":"HULIANWANG DIGUI-166","OBJECT_ID":"2026-076C","EPOCH":"2026-07-21T06:13:35.545152","CLASSIFICATION_TYPE":"U","MEAN_MOTION":13.24411258,"ECCENTRICITY":0.0002069,"INCLINATION":86.4906,"RA_OF_ASC_NODE":32.3149,"ARG_OF_PERICENTER":82.9888,"MEAN_ANOMALY":277.1481,"EPHEMERIS_TYPE":0,"NORAD_CAT_ID":68658,"ELEMENT_SET_NO":999,"REV_AT_EPOCH":1388,"BSTAR":-0.00004240383,"MEAN_MOTION_DOT":-4e-8,"MEAN_MOTION_DDOT":0},{"OBJECT_NAME":"HULIANWANG DIGUI-167","OBJECT_ID":"2026-076D","EPOCH":"2026-07-21T06:02:36.384000","CLASSIFICATION_TYPE":"U","MEAN_MOTION":13.24413263,"ECCENTRICITY":0.00020684,"INCLINATION":86.496,"RA_OF_ASC_NODE":32.3739,"ARG_OF_PERICENTER":82.6852,"MEAN_ANOMALY":277.4517,"EPHEMERIS_TYPE":0,"NORAD_CAT_ID":68659,"ELEMENT_SET_NO":999,"REV_AT_EPOCH":1388,"BSTAR":-0.000034281979,"MEAN_MOTION_DOT":0,"MEAN_MOTION_DDOT":0},{"OBJECT_NAME":"HULIANWANG DIGUI-168","OBJECT_ID":"2026-076E","EPOCH":"2026-07-21T05:51:44.692128","CLASSIFICATION_TYPE":"U","MEAN_MOTION":13.24411198,"ECCENTRICITY":0.00020937,"INCLINATION":86.4941,"RA_OF_ASC_NODE":32.3486,"ARG_OF_PERICENTER":82.7962,"MEAN_ANOMALY":277.341,"EPHEMERIS_TYPE":0,"NORAD_CAT_ID":68660,"ELEMENT_SET_NO":999,"REV_AT_EPOCH":1387,"BSTAR":-0.000039782882,"MEAN_MOTION_DOT":-2e-8,"MEAN_MOTION_DDOT":0}]}
