HULIANWANG DIGUI-156    
1 68130U 26047B   26201.97637496 -.00000096  00000+0  60575-4 0  9991
2 68130  50.0042 295.1276 0000906 222.8538 137.2264 13.29326525 17559
HULIANWANG DIGUI-157    
1 68131U 26047C   26201.29142503 -.00000094  00000+0  65469-4 0  9992
2 68131  50.0014 297.4806 0000927 217.4065 142.6743 13.29325835 17477
HULIANWANG DIGUI-158    
1 68132U 26047D   26201.95966221 -.00000099  00000+0  53992-4 0  9990
2 68132  50.0059 295.0604 0001013 218.3585 141.7215 13.29324573 17552
HULIANWANG DIGUI-159    
1 68133U 26047E   26201.65060158 -.00000136  00000+0 -25518-4 0  9998
2 68133  50.0017 296.0622 0001076 211.6225 148.4583 13.29325922 17522
HULIANWANG DIGUI-160    
1 68134U 26047F   26201.55863499 -.00000093  00000+0  66803-4 0  9990
2 68134  50.0086 296.3074 0001130 202.8553 157.2269 13.29326033 17501
HULIANWANG DIGUI-161    
1 68135U 26047G   26201.26627335 -.00000098  00000+0  55207-4 0  9997
2 68135  50.0104 297.4502 0000971 211.1675 148.9140 13.29325100 17476
HULIANWANG DIGUI-162    
1 68136U 26047H   26202.22713558 -.00000087  00000+0  80301-4 0  9999
2 68136  50.0074 293.8286 0000951 225.8332 134.2463 13.29324530 17597
HULIANWANG DIGUI-163    
1 68137U 26047J   26202.21857318 -.00000105  00000+0  40313-4 0  9992
2 68137  50.0074 293.7872 0000926 224.6174 135.4624 13.29325848 17608
HULIANWANG DIGUI-164    
1 68656U 26076A   26202.27447904  .00000005  00000+0 -21987-4 0  9997
2 68656  86.4948  32.3638 0001919  78.8791 281.2559 13.24410542 13885
HULIANWANG DIGUI-165    
1 68657U 26076B   26202.19137674 -.00000015  00000+0 -69113-4 0  9994
2 68657  86.4964  32.4099 0002114  82.5522 277.5853 13.24413153 13873
HULIANWANG DIGUI-166    
1 68658U 26076C   26202.25943918 -.00000004  00000+0 -42404-4 0  9990
2 68658  86.4906  32.3149 0002069  82.9888 277.1481 13.24411258 13881
HULIANWANG DIGUI-167    
1 68659U 26076D   26202.25181000  .00000000  00000+0 -34282-4 0  9997
2 68659  86.4960  32.3739 0002068  82.6852 277.4517 13.24413263 13885
HULIANWANG DIGUI-168    
1 68660U 26076E   26202.24426727 -.00000002  00000+0 -39783-4 0  9990
2 68660  86.4941  32.3486 0002093  82.7962 277.3410 13.24411198 13871
